start=new Date('2023-01-27T00:00:00.000Z').valueOf();
sats=[{"PERIOD":"95.592","ARG_OF_PERICENTER":"90.7318","MEAN_ANOMALY":"269.3807","FILE":"3762125","INCLINATION":"53.0527","REF_FRAME":"TEME","TLE_LINE2":"2 48648  53.0527 190.2864 0001194  90.7318 269.3807 15.06402018 93034","ECCENTRICITY":"0.00011940","ELEMENT_SET_NO":"999","SITE":"AFETR","MEAN_MOTION_DDOT":"0.0000000000000","OBJECT_ID":"2021-044L","CENTER_NAME":"EARTH","EPOCH":"2023-01-26T17:32:08.088288","NORAD_CAT_ID":"48648","LAUNCH_DATE":"2021-05-26","MEAN_MOTION":"15.06402018","REV_AT_EPOCH":"9303","SEMIMAJOR_AXIS":"6925.342","CLASSIFICATION_TYPE":"U","COUNTRY_CODE":"US","OBJECT_NAME":"STARLINK-2521","OBJECT_TYPE":"PAYLOAD","APOAPSIS":"548.034","TIME_SYSTEM":"UTC","TLE_LINE1":"1 48648U 21044L   23026.73064917  .00000694  00000-0  65479-4 0  9995","PERIAPSIS":"546.380","DECAY_DATE":null,"RA_OF_ASC_NODE":"190.2864","BSTAR":"0.00006547900000","EPHEMERIS_TYPE":"0","GP_ID":"223764066","RCS_SIZE":"LARGE","MEAN_ELEMENT_THEORY":"SGP4","MEAN_MOTION_DOT":"0.00000694"},{"SEMIMAJOR_AXIS":"6925.354","REV_AT_EPOCH":"9203","MEAN_MOTION":"15.06398177","OBJECT_TYPE":"PAYLOAD","OBJECT_NAME":"STARLINK-2673","CLASSIFICATION_TYPE":"U","COUNTRY_CODE":"US","BSTAR":"0.00006756400000","RA_OF_ASC_NODE":"194.6685","DECAY_DATE":null,"PERIAPSIS":"546.508","TIME_SYSTEM":"UTC","TLE_LINE1":"1 48649U 21044M   23025.71700067  .00000725  00000-0  67564-4 0  9998","APOAPSIS":"547.930","MEAN_MOTION_DOT":"0.00000725","MEAN_ELEMENT_THEORY":"SGP4","RCS_SIZE":"LARGE","GP_ID":"223716137","EPHEMERIS_TYPE":"0","ECCENTRICITY":"0.00010270","TLE_LINE2":"2 48649  53.0534 194.6685 0001027  94.0531 266.0575 15.06398177 92036","REF_FRAME":"TEME","INCLINATION":"53.0534","FILE":"3761360","MEAN_ANOMALY":"266.0575","PERIOD":"95.592","ARG_OF_PERICENTER":"94.0531","ELEMENT_SET_NO":"999","EPOCH":"2023-01-25T17:12:28.857888","MEAN_MOTION_DDOT":"0.0000000000000","OBJECT_ID":"2021-044M","CENTER_NAME":"EARTH","SITE":"AFETR","LAUNCH_DATE":"2021-05-26","NORAD_CAT_ID":"48649"},{"APOAPSIS":"548.054","TIME_SYSTEM":"UTC","TLE_LINE1":"1 48650U 21044N   23026.77485874  .00001158  00000-0  96580-4 0  9994","RA_OF_ASC_NODE":"189.9145","DECAY_DATE":null,"PERIAPSIS":"546.338","BSTAR":"0.00009658000000","EPHEMERIS_TYPE":"0","GP_ID":"223764329","RCS_SIZE":"LARGE","MEAN_ELEMENT_THEORY":"SGP4","MEAN_MOTION_DOT":"0.00001158","MEAN_MOTION":"15.06405793","REV_AT_EPOCH":"9303","SEMIMAJOR_AXIS":"6925.331","CLASSIFICATION_TYPE":"U","COUNTRY_CODE":"US","OBJECT_NAME":"STARLINK-2672","OBJECT_TYPE":"PAYLOAD","SITE":"AFETR","MEAN_MOTION_DDOT":"0.0000000000000","OBJECT_ID":"2021-044N","CENTER_NAME":"EARTH","EPOCH":"2023-01-26T18:35:47.795136","NORAD_CAT_ID":"48650","LAUNCH_DATE":"2021-05-26","PERIOD":"95.592","ARG_OF_PERICENTER":"89.5499","MEAN_ANOMALY":"270.5632","INCLINATION":"53.0541","FILE":"3762128","ECCENTRICITY":"0.00012390","TLE_LINE2":"2 48650  53.0541 189.9145 0001239  89.5499 270.5632 15.06405793 93039","REF_FRAME":"TEME","ELEMENT_SET_NO":"999"},{"ELEMENT_SET_NO":"999","FILE":"3762018","INCLINATION":"53.0536","TLE_LINE2":"2 48651  53.0536 190.5302 0001114  86.5044 273.6073 15.06401082 93010","ECCENTRICITY":"0.00011140","REF_FRAME":"TEME","PERIOD":"95.592","ARG_OF_PERICENTER":"86.5044","MEAN_ANOMALY":"273.6073","NORAD_CAT_ID":"48651","LAUNCH_DATE":"2021-05-26","CENTER_NAME":"EARTH","OBJECT_ID":"2021-044P","MEAN_MOTION_DDOT":"0.0000000000000","EPOCH":"2023-01-26T15:19:24.879360","SITE":"AFETR","OBJECT_NAME":"STARLINK-2731","OBJECT_TYPE":"PAYLOAD","COUNTRY_CODE":"US","CLASSIFICATION_TYPE":"U","REV_AT_EPOCH":"9301","SEMIMAJOR_AXIS":"6925.345","MEAN_MOTION":"15.06401082","MEAN_ELEMENT_THEORY":"SGP4","MEAN_MOTION_DOT":"0.00001264","EPHEMERIS_TYPE":"0","RCS_SIZE":"LARGE","GP_ID":"223762092","DECAY_DATE":null,"PERIAPSIS":"546.439","RA_OF_ASC_NODE":"190.5302","BSTAR":"0.00010373000000","APOAPSIS":"547.982","TLE_LINE1":"1 48651U 21044P   23026.63848240  .00001264  00000-0  10373-3 0  9993","TIME_SYSTEM":"UTC"},{"GP_ID":"223764482","RCS_SIZE":"LARGE","EPHEMERIS_TYPE":"0","MEAN_MOTION_DOT":"0.00000523","MEAN_ELEMENT_THEORY":"SGP4","TLE_LINE1":"1 48652U 21044Q   23026.76749094  .00000523  00000-0  53967-4 0  9999","TIME_SYSTEM":"UTC","APOAPSIS":"548.034","BSTAR":"0.00005396700000","PERIAPSIS":"546.391","DECAY_DATE":null,"RA_OF_ASC_NODE":"189.9535","CLASSIFICATION_TYPE":"U","COUNTRY_CODE":"US","OBJECT_TYPE":"PAYLOAD","OBJECT_NAME":"STARLINK-2727","MEAN_MOTION":"15.06400452","SEMIMAJOR_AXIS":"6925.347","REV_AT_EPOCH":"9303","LAUNCH_DATE":"2021-05-26","NORAD_CAT_ID":"48652","SITE":"AFETR","EPOCH":"2023-01-26T18:25:11.217216","CENTER_NAME":"EARTH","MEAN_MOTION_DDOT":"0.0000000000000","OBJECT_ID":"2021-044Q","ELEMENT_SET_NO":"999","MEAN_ANOMALY":"268.1293","PERIOD":"95.592","ARG_OF_PERICENTER":"91.9832","ECCENTRICITY":"0.00011860","TLE_LINE2":"2 48652  53.0538 189.9535 0001186  91.9832 268.1293 15.06400452 93032","REF_FRAME":"TEME","INCLINATION":"53.0538","FILE":"3762130"},{"ELEMENT_SET_NO":"999","REF_FRAME":"TEME","TLE_LINE2":"2 48653  53.0524 190.5686 0001148  92.8230 267.2891 15.06398926 93017","ECCENTRICITY":"0.00011480","FILE":"3762026","INCLINATION":"53.0524","MEAN_ANOMALY":"267.2891","ARG_OF_PERICENTER":"92.8230","PERIOD":"95.592","LAUNCH_DATE":"2021-05-26","NORAD_CAT_ID":"48653","EPOCH":"2023-01-26T15:08:48.059520","CENTER_NAME":"EARTH","MEAN_MOTION_DDOT":"0.0000000000000","OBJECT_ID":"2021-044R","SITE":"AFETR","OBJECT_TYPE":"PAYLOAD","OBJECT_NAME":"STARLINK-2720","COUNTRY_CODE":"US","CLASSIFICATION_TYPE":"U","SEMIMAJOR_AXIS":"6925.352","REV_AT_EPOCH":"9301","MEAN_MOTION":"15.06398926","MEAN_MOTION_DOT":"0.00001066","MEAN_ELEMENT_THEORY":"SGP4","RCS_SIZE":"LARGE","GP_ID":"223762195","EPHEMERIS_TYPE":"0","BSTAR":"0.00009044100000","DECAY_DATE":null,"RA_OF_ASC_NODE":"190.5686","PERIAPSIS":"546.422","TLE_LINE1":"1 48653U 21044R   23026.63111180  .00001066  00000-0  90441-4 0  9996","TIME_SYSTEM":"UTC","APOAPSIS":"548.012"},{"TIME_SYSTEM":"UTC","TLE_LINE1":"1 48654U 21044S   23026.42838818  .00000844  00000-0  75553-4 0  9998","APOAPSIS":"547.931","BSTAR":"0.00007555300000","DECAY_DATE":null,"PERIAPSIS":"546.520","RA_OF_ASC_NODE":"191.4791","RCS_SIZE":"LARGE","GP_ID":"223756237","EPHEMERIS_TYPE":"0","MEAN_MOTION_DOT":"0.00000844","MEAN_ELEMENT_THEORY":"SGP4","MEAN_MOTION":"15.06396183","SEMIMAJOR_AXIS":"6925.360","REV_AT_EPOCH":"9214","CLASSIFICATION_TYPE":"U","COUNTRY_CODE":"US","OBJECT_TYPE":"PAYLOAD","OBJECT_NAME":"STARLINK-2651","SITE":"AFETR","EPOCH":"2023-01-26T10:16:52.738752","MEAN_MOTION_DDOT":"0.0000000000000","OBJECT_ID":"2021-044S","CENTER_NAME":"EARTH","LAUNCH_DATE":"2021-05-26","NORAD_CAT_ID":"48654","MEAN_ANOMALY":"276.0547","PERIOD":"95.592","ARG_OF_PERICENTER":"84.0558","TLE_LINE2":"2 48654  53.0535 191.4791 0001019  84.0558 276.0547 15.06396183 92142","REF_FRAME":"TEME","ECCENTRICITY":"0.00010190","FILE":"3761951","INCLINATION":"53.0535","ELEMENT_SET_NO":"999"},{"NORAD_CAT_ID":"48655","LAUNCH_DATE":"2021-05-26","SITE":"AFETR","MEAN_MOTION_DDOT":"0.0000000000000","OBJECT_ID":"2021-044T","CENTER_NAME":"EARTH","EPOCH":"2023-01-26T18:09:15.502752","ELEMENT_SET_NO":"999","PERIOD":"95.592","ARG_OF_PERICENTER":"77.9994","MEAN_ANOMALY":"282.1120","FILE":"3762131","INCLINATION":"53.0520","TLE_LINE2":"2 48655  53.0520 190.0052 0001119  77.9994 282.1120 15.06409249 93030","ECCENTRICITY":"0.00011190","REF_FRAME":"TEME","EPHEMERIS_TYPE":"0","RCS_SIZE":"LARGE","GP_ID":"223764381","MEAN_ELEMENT_THEORY":"SGP4","MEAN_MOTION_DOT":"-0.00000995","APOAPSIS":"547.960","TIME_SYSTEM":"UTC","TLE_LINE1":"1 48655U 21044T   23026.75642943 -.00000995  00000-0 -47877-4 0  9994","DECAY_DATE":null,"RA_OF_ASC_NODE":"190.0052","PERIAPSIS":"546.410","BSTAR":"-0.00004787700000","CLASSIFICATION_TYPE":"U","COUNTRY_CODE":"US","OBJECT_NAME":"STARLINK-2657","OBJECT_TYPE":"PAYLOAD","MEAN_MOTION":"15.06409249","REV_AT_EPOCH":"9303","SEMIMAJOR_AXIS":"6925.320"},{"RCS_SIZE":"LARGE","GP_ID":"223764517","EPHEMERIS_TYPE":"0","MEAN_MOTION_DOT":"0.00000476","MEAN_ELEMENT_THEORY":"SGP4","TLE_LINE1":"1 48656U 21044U   23026.75274645  .00000476  00000-0  50824-4 0  9993","TIME_SYSTEM":"UTC","APOAPSIS":"547.952","BSTAR":"0.00005082400000","RA_OF_ASC_NODE":"190.0230","DECAY_DATE":null,"PERIAPSIS":"546.448","COUNTRY_CODE":"US","CLASSIFICATION_TYPE":"U","OBJECT_TYPE":"PAYLOAD","OBJECT_NAME":"STARLINK-2701","MEAN_MOTION":"15.06404437","SEMIMAJOR_AXIS":"6925.335","REV_AT_EPOCH":"9303","LAUNCH_DATE":"2021-05-26","NORAD_CAT_ID":"48656","SITE":"AFETR","EPOCH":"2023-01-26T18:03:57.293280","CENTER_NAME":"EARTH","MEAN_MOTION_DDOT":"0.0000000000000","OBJECT_ID":"2021-044U","ELEMENT_SET_NO":"999","MEAN_ANOMALY":"274.5358","PERIOD":"95.592","ARG_OF_PERICENTER":"85.5755","TLE_LINE2":"2 48656  53.0518 190.0230 0001086  85.5755 274.5358 15.06404437 93031","REF_FRAME":"TEME","ECCENTRICITY":"0.00010860","INCLINATION":"53.0518","FILE":"3762132"},{"OBJECT_NAME":"STARLINK-2734","OBJECT_TYPE":"PAYLOAD","CLASSIFICATION_TYPE":"U","COUNTRY_CODE":"US","REV_AT_EPOCH":"9309","SEMIMAJOR_AXIS":"6925.393","MEAN_MOTION":"15.06385436","MEAN_ELEMENT_THEORY":"SGP4","MEAN_MOTION_DOT":"0.00001582","EPHEMERIS_TYPE":"0","GP_ID":"223764515","RCS_SIZE":"LARGE","PERIAPSIS":"546.505","DECAY_DATE":null,"RA_OF_ASC_NODE":"190.0331","BSTAR":"0.00012513000000","APOAPSIS":"548.011","TLE_LINE1":"1 48657U 21044V   23026.74909185  .00001582  00000-0  12513-3 0  9998","TIME_SYSTEM":"UTC","ELEMENT_SET_NO":"999","FILE":"3762132","INCLINATION":"53.0539","REF_FRAME":"TEME","TLE_LINE2":"2 48657  53.0539 190.0331 0001087  83.0449 277.0663 15.06385436 93091","ECCENTRICITY":"0.00010870","ARG_OF_PERICENTER":"83.0449","PERIOD":"95.593","MEAN_ANOMALY":"277.0663","NORAD_CAT_ID":"48657","LAUNCH_DATE":"2021-05-26","CENTER_NAME":"EARTH","MEAN_MOTION_DDOT":"0.0000000000000","OBJECT_ID":"2021-044V","EPOCH":"2023-01-26T17:58:41.535840","SITE":"AFETR"}];
